{"type": "FeatureCollection", "features": [ {"type": "Feature", "properties": {"norad_id": 66479, "name": "STARLINK-35581", "group": "last-30-days", "lat": 14.885881071128672, "lon": 137.3514434486987, "alt_km": 396.1020910584293, "timestamp": "2025-12-04T05:42:42.158004+00:00", "meta": {"OBJECT_NAME": "STARLINK-35581", "OBJECT_ID": "2025-262Z", "EPOCH": "2025-12-03T22:00:03.000096", "MEAN_MOTION": 15.57792954, "ECCENTRICITY": 0.00017137, "INCLINATION": 42.9994, "RA_OF_ASC_NODE": 122.6749, "ARG_OF_PERICENTER": 284.554, "MEAN_ANOMALY": 94.5435, "EPHEMERIS_TYPE": 0, "CLASSIFICATION_TYPE": "U", "NORAD_CAT_ID": 66479, "ELEMENT_SET_NO": 999, "REV_AT_EPOCH": 422, "BSTAR": -0.031176844, "MEAN_MOTION_DOT": -0.02118366, "MEAN_MOTION_DDOT": 0}, "tle": {"line1": "1 66479U 25262Z   25337.91670139 -.02118366  00000+0 -31177-1 0  9993", "line2": "2 66479  42.9994 122.6749 0001713 284.5540  94.5435 15.57792954  4224"}}, "geometry": {"type": "Point", "coordinates": [137.3514434486987, 14.885881071128672]}}, {"type": "Feature", "properties": {"norad_id": 66480, "name": "STARLINK-35670", "group": "last-30-days", "lat": 18.59741356347261, "lon": 141.93061005993394, "alt_km": 395.69380708178505, "timestamp": "2025-12-04T05:42:42.158015+00:00", "meta": {"OBJECT_NAME": "STARLINK-35670", "OBJECT_ID": "2025-262AA", "EPOCH": "2025-12-03T22:00:03.000096", "MEAN_MOTION": 15.57794747, "ECCENTRICITY": 0.0001607, "INCLINATION": 42.9993, "RA_OF_ASC_NODE": 122.6605, "ARG_OF_PERICENTER": 282.4854, "MEAN_ANOMALY": 102.3634, "EPHEMERIS_TYPE": 0, "CLASSIFICATION_TYPE": "U", "NORAD_CAT_ID": 66480, "ELEMENT_SET_NO": 999, "REV_AT_EPOCH": 422, "BSTAR": -0.031217795, "MEAN_MOTION_DOT": -0.02120892, "MEAN_MOTION_DDOT": 0}, "tle": {"line1": "1 66480U 25262AA  25337.91670139 -.02120892  00000+0 -31218-1 0  9998", "line2": "2 66480  42.9993 122.6605 0001607 282.4854 102.3634 15.57794747  4224"}}, "geometry": {"type": "Point", "coordinates": [141.93061005993394, 18.59741356347261]}}, {"type": "Feature", "properties": {"norad_id": 66481, "name": "STARLINK-35698", "group": "last-30-days", "lat": 19.81241856662318, "lon": 143.5018998438026, "alt_km": 395.5111306821718, "timestamp": "2025-12-04T05:42:42.158027+00:00", "meta": {"OBJECT_NAME": "STARLINK-35698", "OBJECT_ID": "2025-262AB", "EPOCH": "2025-12-03T22:00:03.000096", "MEAN_MOTION": 15.57782514, "ECCENTRICITY": 0.0001769, "INCLINATION": 42.9992, "RA_OF_ASC_NODE": 122.6551, "ARG_OF_PERICENTER": 285.3516, "MEAN_ANOMALY": 101.4251, "EPHEMERIS_TYPE": 0, "CLASSIFICATION_TYPE": "U", "NORAD_CAT_ID": 66481, "ELEMENT_SET_NO": 999, "REV_AT_EPOCH": 422, "BSTAR": -0.031066234, "MEAN_MOTION_DOT": -0.02110973, "MEAN_MOTION_DDOT": 0}, "tle": {"line1": "1 66481U 25262AB  25337.91670139 -.02110973  00000+0 -31066-1 0  9999", "line2": "2 66481  42.9992 122.6551 0001769 285.3516 101.4251 15.57782514  4224"}}, "geometry": {"type": "Point", "coordinates": [143.5018998438026, 19.81241856662318]}}, {"type": "Feature", "properties": {"norad_id": 66482, "name": "STARLINK-35648", "group": "last-30-days", "lat": 21.011239161514656, "lon": 145.09479931981602, "alt_km": 395.3377203658829, "timestamp": "2025-12-04T05:42:42.158037+00:00", "meta": {"OBJECT_NAME": "STARLINK-35648", "OBJECT_ID": "2025-262AC", "EPOCH": "2025-12-03T22:00:03.000096", "MEAN_MOTION": 15.57780994, "ECCENTRICITY": 0.00017388, "INCLINATION": 42.9997, "RA_OF_ASC_NODE": 122.6506, "ARG_OF_PERICENTER": 286.275, "MEAN_ANOMALY": 102.4196, "EPHEMERIS_TYPE": 0, "CLASSIFICATION_TYPE": "U", "NORAD_CAT_ID": 66482, "ELEMENT_SET_NO": 999, "REV_AT_EPOCH": 406, "BSTAR": -0.031044455, "MEAN_MOTION_DOT": -0.02109525, "MEAN_MOTION_DDOT": 0}, "tle": {"line1": "1 66482U 25262AC  25337.91670139 -.02109525  00000+0 -31044-1 0  9997", "line2": "2 66482  42.9997 122.6506 0001738 286.2750 102.4196 15.57780994  4067"}}, "geometry": {"type": "Point", "coordinates": [145.09479931981602, 21.011239161514656]}}, {"type": "Feature", "properties": {"norad_id": 66483, "name": "STARLINK-35654", "group": "last-30-days", "lat": 22.19572836210369, "lon": 146.71367460684158, "alt_km": 395.30307843490846, "timestamp": "2025-12-04T05:42:42.158047+00:00", "meta": {"OBJECT_NAME": "STARLINK-35654", "OBJECT_ID": "2025-262AD", "EPOCH": "2025-12-03T22:00:03.000096", "MEAN_MOTION": 15.57782899, "ECCENTRICITY": 0.00016766, "INCLINATION": 42.9998, "RA_OF_ASC_NODE": 122.6449, "ARG_OF_PERICENTER": 281.4269, "MEAN_ANOMALY": 109.1863, "EPHEMERIS_TYPE": 0, "CLASSIFICATION_TYPE": "U", "NORAD_CAT_ID": 66483, "ELEMENT_SET_NO": 999, "REV_AT_EPOCH": 422, "BSTAR": -0.031098064, "MEAN_MOTION_DOT": -0.02112858, "MEAN_MOTION_DDOT": 0}, "tle": {"line1": "1 66483U 25262AD  25337.91670139 -.02112858  00000+0 -31098-1 0  9990", "line2": "2 66483  42.9998 122.6449 0001676 281.4269 109.1863 15.57782899  4227"}}, "geometry": {"type": "Point", "coordinates": [146.71367460684158, 22.19572836210369]}}, {"type": "Feature", "properties": {"norad_id": 66484, "name": "STARLINK-35371", "group": "last-30-days", "lat": 23.36276004097539, "lon": 148.36064405885926, "alt_km": 394.9851967383265, "timestamp": "2025-12-04T05:42:42.158056+00:00", "meta": {"OBJECT_NAME": "STARLINK-35371", "OBJECT_ID": "2025-262AE", "EPOCH": "2025-12-03T22:00:03.000096", "MEAN_MOTION": 15.57784339, "ECCENTRICITY": 0.00016131, "INCLINATION": 42.9999, "RA_OF_ASC_NODE": 122.6414, "ARG_OF_PERICENTER": 288.0373, "MEAN_ANOMALY": 104.4916, "EPHEMERIS_TYPE": 0, "CLASSIFICATION_TYPE": "U", "NORAD_CAT_ID": 66484, "ELEMENT_SET_NO": 999, "REV_AT_EPOCH": 422, "BSTAR": -0.031142506, "MEAN_MOTION_DOT": -0.02115602, "MEAN_MOTION_DDOT": 0}, "tle": {"line1": "1 66484U 25262AE  25337.91670139 -.02115602  00000+0 -31143-1 0  9992", "line2": "2 66484  42.9999 122.6414 0001613 288.0373 104.4916 15.57784339  4229"}}, "geometry": {"type": "Point", "coordinates": [148.36064405885926, 23.36276004097539]}}, {"type": "Feature", "properties": {"norad_id": 66485, "name": "STARLINK-34774", "group": "last-30-days", "lat": 13.78998101906155, "lon": -20.0641676449102, "alt_km": 362.5184049810514, "timestamp": "2025-12-04T05:42:42.158070+00:00", "meta": {"OBJECT_NAME": "STARLINK-34774", "OBJECT_ID": "2025-263A", "EPOCH": "2025-12-03T22:00:03.000096", "MEAN_MOTION": 15.69578713, "ECCENTRICITY": 0.00013961, "INCLINATION": 42.9994, "RA_OF_ASC_NODE": 177.1395, "ARG_OF_PERICENTER": 284.8421, "MEAN_ANOMALY": 217.7914, "EPHEMERIS_TYPE": 0, "CLASSIFICATION_TYPE": "U", "NORAD_CAT_ID": 66485, "ELEMENT_SET_NO": 999, "REV_AT_EPOCH": 421, "BSTAR": -0.017965851, "MEAN_MOTION_DOT": -0.01936013, "MEAN_MOTION_DDOT": 0}, "tle": {"line1": "1 66485U 25263A   25337.91670139 -.01936013  00000+0 -17966-1 0  9997", "line2": "2 66485  42.9994 177.1395 0001396 284.8421 217.7914 15.69578713  4219"}}, "geometry": {"type": "Point", "coordinates": [-20.0641676449102, 13.78998101906155]}}, {"type": "Feature", "properties": {"norad_id": 66486, "name": "STARLINK-34844", "group": "last-30-days", "lat": 12.523204263351213, "lon": -18.58883561546459, "alt_km": 362.5133132875735, "timestamp": "2025-12-04T05:42:42.158082+00:00", "meta": {"OBJECT_NAME": "STARLINK-34844", "OBJECT_ID": "2025-263B", "EPOCH": "2025-12-03T22:00:03.000096", "MEAN_MOTION": 15.69552122, "ECCENTRICITY": 0.00014255, "INCLINATION": 42.9993, "RA_OF_ASC_NODE": 177.1336, "ARG_OF_PERICENTER": 274.5307, "MEAN_ANOMALY": 230.0435, "EPHEMERIS_TYPE": 0, "CLASSIFICATION_TYPE": "U", "NORAD_CAT_ID": 66486, "ELEMENT_SET_NO": 999, "REV_AT_EPOCH": 416, "BSTAR": -0.017727055, "MEAN_MOTION_DOT": -0.01911343, "MEAN_MOTION_DDOT": 0}, "tle": {"line1": "1 66486U 25263B   25337.91670139 -.01911343  00000+0 -17727-1 0  9992", "line2": "2 66486  42.9993 177.1336 0001425 274.5307 230.0435 15.69552122  4162"}}, "geometry": {"type": "Point", "coordinates": [-18.58883561546459, 12.523204263351213]}}, {"type": "Feature", "properties": {"norad_id": 66487, "name": "STARLINK-34733", "group": "last-30-days", "lat": 11.250571602940745, "lon": -17.128659701310085, "alt_km": 362.75689243296983, "timestamp": "2025-12-04T05:42:42.158093+00:00", "meta": {"OBJECT_NAME": "STARLINK-34733", "OBJECT_ID": "2025-263C", "EPOCH": "2025-12-03T22:00:03.000096", "MEAN_MOTION": 15.69589261, "ECCENTRICITY": 0.00013189, "INCLINATION": 42.9993, "RA_OF_ASC_NODE": 177.1296, "ARG_OF_PERICENTER": 281.9724, "MEAN_ANOMALY": 224.4884, "EPHEMERIS_TYPE": 0, "CLASSIFICATION_TYPE": "U", "NORAD_CAT_ID": 66487, "ELEMENT_SET_NO": 999, "REV_AT_EPOCH": 421, "BSTAR": -0.018076262, "MEAN_MOTION_DOT": -0.01947234, "MEAN_MOTION_DDOT": 0}, "tle": {"line1": "1 66487U 25263C   25337.91670139 -.01947234  00000+0 -18076-1 0  9999", "line2": "2 66487  42.9993 177.1296 0001318 281.9724 224.4884 15.69589261  4219"}}, "geometry": {"type": "Point", "coordinates": [-17.128659701310085, 11.250571602940745]}}, {"type": "Feature", "properties": {"norad_id": 66488, "name": "STARLINK-35515", "group": "last-30-days", "lat": 9.969173177903306, "lon": -15.680556388145284, "alt_km": 362.92759196356565, "timestamp": "2025-12-04T05:42:42.158105+00:00", "meta": {"OBJECT_NAME": "STARLINK-35515", "OBJECT_ID": "2025-263D", "EPOCH": "2025-12-03T22:00:03.000096", "MEAN_MOTION": 15.69588165, "ECCENTRICITY": 0.00012505, "INCLINATION": 42.9993, "RA_OF_ASC_NODE": 177.1245, "ARG_OF_PERICENTER": 283.869, "MEAN_ANOMALY": 224.5096, "EPHEMERIS_TYPE": 0, "CLASSIFICATION_TYPE": "U", "NORAD_CAT_ID": 66488, "ELEMENT_SET_NO": 999, "REV_AT_EPOCH": 421, "BSTAR": -0.018061646, "MEAN_MOTION_DOT": -0.01945711, "MEAN_MOTION_DDOT": 0}, "tle": {"line1": "1 66488U 25263D   25337.91670139 -.01945711  00000+0 -18062-1 0  9993", "line2": "2 66488  42.9993 177.1245 0001250 283.8690 224.5096 15.69588165  4210"}}, "geometry": {"type": "Point", "coordinates": [-15.680556388145284, 9.969173177903306]}}]}